{
  "type": "FeatureCollection",
  "features": [
    {
      "type": "Feature",
      "properties": {
        "norad_id": 66849,
        "name": "STARLINK-36102",
        "group": "last-30-days",
        "lat": 34.75123283859033,
        "lon": 87.66183872382906,
        "alt_km": 410.2959250793301,
        "timestamp": "2025-12-26T10:30:48.975539+00:00",
        "meta_object_name": "STARLINK-36102",
        "meta_object_id": "2025-281B",
        "meta_epoch": "2025-12-26T04:00:01.998720",
        "meta_mean_motion": 15.50512226,
        "meta_eccentricity": 0.0001092,
        "meta_inclination": 43.0005,
        "meta_ra_of_asc_node": 41.1348,
        "meta_arg_of_pericenter": 244.2755,
        "meta_mean_anomaly": 95.8781,
        "meta_ephemeris_type": 0,
        "meta_classification_type": "U",
        "meta_norad_cat_id": 66849,
        "meta_element_set_no": 999,
        "meta_rev_at_epoch": 354,
        "meta_bstar": 0.0013378,
        "meta_mean_motion_dot": 0.00078744,
        "meta_mean_motion_ddot": 0,
        "tle_line1": "1 66849U 25281B   25360.16668980  .00078744  00000+0  13378-2 0  9994",
        "tle_line2": "2 66849  43.0005  41.1348 0001092 244.2755  95.8781 15.50512226  3548"
      },
      "geometry": {
        "type": "Point",
        "coordinates": [
          87.66183872382906,
          34.75123283859033
        ]
      }
    },
    {
      "type": "Feature",
      "properties": {
        "norad_id": 66850,
        "name": "STARLINK-36105",
        "group": "last-30-days",
        "lat": 35.60066062844531,
        "lon": 89.74342321941198,
        "alt_km": 410.1377112507944,
        "timestamp": "2025-12-26T10:30:48.975568+00:00",
        "meta_object_name": "STARLINK-36105",
        "meta_object_id": "2025-281C",
        "meta_epoch": "2025-12-26T04:00:01.998720",
        "meta_mean_motion": 15.50507023,
        "meta_eccentricity": 0.000103,
        "meta_inclination": 43.0006,
        "meta_ra_of_asc_node": 41.1302,
        "meta_arg_of_pericenter": 245.8646,
        "meta_mean_anomaly": 96.1975,
        "meta_ephemeris_type": 0,
        "meta_classification_type": "U",
        "meta_norad_cat_id": 66850,
        "meta_element_set_no": 999,
        "meta_rev_at_epoch": 354,
        "meta_bstar": 0.0013031,
        "meta_mean_motion_dot": 0.0007666,
        "meta_mean_motion_ddot": 0,
        "tle_line1": "1 66850U 25281C   25360.16668980  .00076660  00000+0  13031-2 0  9997",
        "tle_line2": "2 66850  43.0006  41.1302 0001030 245.8646  96.1975 15.50507023  3547"
      },
      "geometry": {
        "type": "Point",
        "coordinates": [
          89.74342321941198,
          35.60066062844531
        ]
      }
    },
    {
      "type": "Feature",
      "properties": {
        "norad_id": 66851,
        "name": "STARLINK-36094",
        "group": "last-30-days",
        "lat": 36.39089792643568,
        "lon": 91.80856353415312,
        "alt_km": 410.0778149626394,
        "timestamp": "2025-12-26T10:30:48.975580+00:00",
        "meta_object_name": "STARLINK-36094",
        "meta_object_id": "2025-281D",
        "meta_epoch": "2025-12-26T04:00:01.998720",
        "meta_mean_motion": 15.50484059,
        "meta_eccentricity": 0.00011,
        "meta_inclination": 43.0006,
        "meta_ra_of_asc_node": 41.126,
        "meta_arg_of_pericenter": 227.8455,
        "meta_mean_anomaly": 116.0848,
        "meta_ephemeris_type": 0,
        "meta_classification_type": "U",
        "meta_norad_cat_id": 66851,
        "meta_element_set_no": 999,
        "meta_rev_at_epoch": 354,
        "meta_bstar": 0.001783,
        "meta_mean_motion_dot": 0.0010532,
        "meta_mean_motion_ddot": 0,
        "tle_line1": "1 66851U 25281D   25360.16668980  .00105320  00000+0  17830-2 0  9995",
        "tle_line2": "2 66851  43.0006  41.1260 0001100 227.8455 116.0848 15.50484059  3541"
      },
      "geometry": {
        "type": "Point",
        "coordinates": [
          91.80856353415312,
          36.39089792643568
        ]
      }
    },
    {
      "type": "Feature",
      "properties": {
        "norad_id": 66852,
        "name": "STARLINK-35992",
        "group": "last-30-days",
        "lat": 37.17488239150913,
        "lon": 94.00237073189223,
        "alt_km": 409.46897769544375,
        "timestamp": "2025-12-26T10:30:48.975593+00:00",
        "meta_object_name": "STARLINK-35992",
        "meta_object_id": "2025-281E",
        "meta_epoch": "2025-12-26T04:00:01.998720",
        "meta_mean_motion": 15.5047418,
        "meta_eccentricity": 4.18e-05,
        "meta_inclination": 43.0005,
        "meta_ra_of_asc_node": 41.1211,
        "meta_arg_of_pericenter": 281.673,
        "meta_mean_anomaly": 64.1882,
        "meta_ephemeris_type": 0,
        "meta_classification_type": "U",
        "meta_norad_cat_id": 66852,
        "meta_element_set_no": 999,
        "meta_rev_at_epoch": 354,
        "meta_bstar": 0.0016793,
        "meta_mean_motion_dot": 0.0009906,
        "meta_mean_motion_ddot": 0,
        "tle_line1": "1 66852U 25281E   25360.16668980  .00099060  00000+0  16793-2 0  9996",
        "tle_line2": "2 66852  43.0005  41.1211 0000418 281.6730  64.1882 15.50474180  3547"
      },
      "geometry": {
        "type": "Point",
        "coordinates": [
          94.00237073189223,
          37.17488239150913
        ]
      }
    },
    {
      "type": "Feature",
      "properties": {
        "norad_id": 66853,
        "name": "STARLINK-35986",
        "group": "last-30-days",
        "lat": 37.91379065703233,
        "lon": 96.22966049253017,
        "alt_km": 409.3151196743547,
        "timestamp": "2025-12-26T10:30:48.975604+00:00",
        "meta_object_name": "STARLINK-35986",
        "meta_object_id": "2025-281F",
        "meta_epoch": "2025-12-26T04:00:01.998720",
        "meta_mean_motion": 15.5047538,
        "meta_eccentricity": 4.01e-05,
        "meta_inclination": 43.0004,
        "meta_ra_of_asc_node": 41.1162,
        "meta_arg_of_pericenter": 291.0602,
        "meta_mean_anomaly": 56.715,
        "meta_ephemeris_type": 0,
        "meta_classification_type": "U",
        "meta_norad_cat_id": 66853,
        "meta_element_set_no": 999,
        "meta_rev_at_epoch": 354,
        "meta_bstar": 0.0016753,
        "meta_mean_motion_dot": 0.00098824,
        "meta_mean_motion_ddot": 0,
        "tle_line1": "1 66853U 25281F   25360.16668980  .00098824  00000+0  16753-2 0  9990",
        "tle_line2": "2 66853  43.0004  41.1162 0000401 291.0602  56.7150 15.50475380  3545"
      },
      "geometry": {
        "type": "Point",
        "coordinates": [
          96.22966049253017,
          37.91379065703233
        ]
      }
    },
    {
      "type": "Feature",
      "properties": {
        "norad_id": 66854,
        "name": "STARLINK-36087",
        "group": "last-30-days",
        "lat": 38.61170446595852,
        "lon": 98.50734744118725,
        "alt_km": 409.2426526656609,
        "timestamp": "2025-12-26T10:30:48.975616+00:00",
        "meta_object_name": "STARLINK-36087",
        "meta_object_id": "2025-281G",
        "meta_epoch": "2025-12-26T04:00:01.998720",
        "meta_mean_motion": 15.50475985,
        "meta_eccentricity": 4.34e-05,
        "meta_inclination": 43.0003,
        "meta_ra_of_asc_node": 41.1109,
        "meta_arg_of_pericenter": 287.3908,
        "meta_mean_anomaly": 62.3055,
        "meta_ephemeris_type": 0,
        "meta_classification_type": "U",
        "meta_norad_cat_id": 66854,
        "meta_element_set_no": 999,
        "meta_rev_at_epoch": 354,
        "meta_bstar": 0.0016373,
        "meta_mean_motion_dot": 0.00096547,
        "meta_mean_motion_ddot": 0,
        "tle_line1": "1 66854U 25281G   25360.16668980  .00096547  00000+0  16373-2 0  9999",
        "tle_line2": "2 66854  43.0003  41.1109 0000434 287.3908  62.3055 15.50475985  3547"
      },
      "geometry": {
        "type": "Point",
        "coordinates": [
          98.50734744118725,
          38.61170446595852
        ]
      }
    },
    {
      "type": "Feature",
      "properties": {
        "norad_id": 66855,
        "name": "STARLINK-36090",
        "group": "last-30-days",
        "lat": 39.26560159108054,
        "lon": 100.83319974832071,
        "alt_km": 409.2011756903621,
        "timestamp": "2025-12-26T10:30:48.975626+00:00",
        "meta_object_name": "STARLINK-36090",
        "meta_object_id": "2025-281H",
        "meta_epoch": "2025-12-26T04:00:01.998720",
        "meta_mean_motion": 15.50480395,
        "meta_eccentricity": 5.94e-05,
        "meta_inclination": 43.0003,
        "meta_ra_of_asc_node": 41.1063,
        "meta_arg_of_pericenter": 293.8777,
        "meta_mean_anomaly": 57.7399,
        "meta_ephemeris_type": 0,
        "meta_classification_type": "U",
        "meta_norad_cat_id": 66855,
        "meta_element_set_no": 999,
        "meta_rev_at_epoch": 342,
        "meta_bstar": 0.0014553,
        "meta_mean_motion_dot": 0.00085673,
        "meta_mean_motion_ddot": 0,
        "tle_line1": "1 66855U 25281H   25360.16668980  .00085673  00000+0  14553-2 0  9996",
        "tle_line2": "2 66855  43.0003  41.1063 0000594 293.8777  57.7399 15.50480395  3427"
      },
      "geometry": {
        "type": "Point",
        "coordinates": [
          100.83319974832071,
          39.26560159108054
        ]
      }
    }
  ]
}